{"type": "FeatureCollection", "features": [{"type": "Feature", "properties": {"norad_id": 2807, "name": "OPS 7218 (TRANSIT 16)", "group": "nnss", "lat": -50.27124250073056, "lon": -6.738187706705828, "alt_km": 1088.2452846205406, "timestamp": "2025-12-23T14:49:09.659315+00:00", "meta": {"OBJECT_NAME": "OPS 7218 (TRANSIT 16)", "OBJECT_ID": "1967-048A", "EPOCH": "2025-12-23T01:08:49.546752", "MEAN_MOTION": 13.50724389, "ECCENTRICITY": 0.00221615, "INCLINATION": 89.6731, "RA_OF_ASC_NODE": 353.6742, "ARG_OF_PERICENTER": 86.6117, "MEAN_ANOMALY": 334.9058, "EPHEMERIS_TYPE": 0, "CLASSIFICATION_TYPE": "U", "NORAD_CAT_ID": 2807, "ELEMENT_SET_NO": 999, "REV_AT_EPOCH": 88415, "BSTAR": 0.00014649002, "MEAN_MOTION_DOT": 1.05e-06, "MEAN_MOTION_DDOT": 0}, "tle": {"line1": "1 02807U 67048A   25357.04779568  .00000105  00000+0  14649-3 0  9992", "line2": "2 02807  89.6731 353.6742 0022161  86.6117 334.9058 13.50724389884154"}}, "geometry": {"type": "Point", "coordinates": [-6.738187706705828, -50.27124250073056]}}, {"type": "Feature", "properties": {"norad_id": 2965, "name": "OPS 4947 (TRANSIT 17)", "group": "nnss", "lat": 59.15628101397287, "lon": -157.6535436154743, "alt_km": 1048.5601458658984, "timestamp": "2025-12-23T14:49:09.659339+00:00", "meta": {"OBJECT_NAME": "OPS 4947 (TRANSIT 17)", "OBJECT_ID": "1967-092A", "EPOCH": "2025-12-23T01:55:51.648096", "MEAN_MOTION": 13.53456258, "ECCENTRICITY": 0.00469498, "INCLINATION": 89.2486, "RA_OF_ASC_NODE": 23.6466, "ARG_OF_PERICENTER": 203.7716, "MEAN_ANOMALY": 182.5317, "EPHEMERIS_TYPE": 0, "CLASSIFICATION_TYPE": "U", "NORAD_CAT_ID": 2965, "ELEMENT_SET_NO": 999, "REV_AT_EPOCH": 87237, "BSTAR": 0.00019191812, "MEAN_MOTION_DOT": 1.41e-06, "MEAN_MOTION_DDOT": 0}, "tle": {"line1": "1 02965U 67092A   25357.08045889  .00000141  00000+0  19192-3 0  9990", "line2": "2 02965  89.2486  23.6466 0046949 203.7716 182.5317 13.53456258872372"}}, "geometry": {"type": "Point", "coordinates": [-157.6535436154743, 59.15628101397287]}}, {"type": "Feature", "properties": {"norad_id": 3133, "name": "OPS 7034 (TRANSIT 18)", "group": "nnss", "lat": -17.490487105421497, "lon": 93.66090626241933, "alt_km": 1042.8725595659207, "timestamp": "2025-12-23T14:49:09.659353+00:00", "meta": {"OBJECT_NAME": "OPS 7034 (TRANSIT 18)", "OBJECT_ID": "1968-012A", "EPOCH": "2025-12-23T05:43:06.267072", "MEAN_MOTION": 13.51568112, "ECCENTRICITY": 0.00748279, "INCLINATION": 90.0285, "RA_OF_ASC_NODE": 273.6688, "ARG_OF_PERICENTER": 138.9432, "MEAN_ANOMALY": 13.7146, "EPHEMERIS_TYPE": 0, "CLASSIFICATION_TYPE": "U", "NORAD_CAT_ID": 3133, "ELEMENT_SET_NO": 999, "REV_AT_EPOCH": 57060, "BSTAR": 0.00021198216, "MEAN_MOTION_DOT": 1.51e-06, "MEAN_MOTION_DDOT": 0}, "tle": {"line1": "1 03133U 68012A   25357.23826698  .00000151  00000+0  21198-3 0  9993", "line2": "2 03133  90.0285 273.6688 0074827 138.9432  13.7146 13.51568112570607"}}, "geometry": {"type": "Point", "coordinates": [93.66090626241933, -17.490487105421497]}}, {"type": "Feature", "properties": {"norad_id": 4507, "name": "NNSS 19 (TRANSIT 19)", "group": "nnss", "lat": 23.50235429197387, "lon": 54.54333178459018, "alt_km": 1098.041210175078, "timestamp": "2025-12-23T14:49:09.659366+00:00", "meta": {"OBJECT_NAME": "NNSS 19 (TRANSIT 19)", "OBJECT_ID": "1970-067A", "EPOCH": "2025-12-23T05:08:36.510144", "MEAN_MOTION": 13.51317207, "ECCENTRICITY": 0.01702239, "INCLINATION": 90.0049, "RA_OF_ASC_NODE": 234.541, "ARG_OF_PERICENTER": 262.7201, "MEAN_ANOMALY": 95.4575, "EPHEMERIS_TYPE": 0, "CLASSIFICATION_TYPE": "U", "NORAD_CAT_ID": 4507, "ELEMENT_SET_NO": 999, "REV_AT_EPOCH": 72363, "BSTAR": 0.00015353902, "MEAN_MOTION_DOT": 1.17e-06, "MEAN_MOTION_DDOT": 0}, "tle": {"line1": "1 04507U 70067A   25357.21431146  .00000117  00000+0  15354-3 0  9999", "line2": "2 04507  90.0049 234.5410 0170223 262.7201  95.4575 13.51317207723630"}}, "geometry": {"type": "Point", "coordinates": [54.54333178459018, 23.50235429197387]}}, {"type": "Feature", "properties": {"norad_id": 6909, "name": "NNSS 20 (TRANSIT 20)", "group": "nnss", "lat": -63.97467416322834, "lon": -105.40368549978642, "alt_km": 1039.5002840306124, "timestamp": "2025-12-23T14:49:09.659378+00:00", "meta": {"OBJECT_NAME": "NNSS 20 (TRANSIT 20)", "OBJECT_ID": "1973-081A", "EPOCH": "2025-12-23T04:37:21.546336", "MEAN_MOTION": 13.71439685, "ECCENTRICITY": 0.01562589, "INCLINATION": 89.8561, "RA_OF_ASC_NODE": 254.8976, "ARG_OF_PERICENTER": 47.344, "MEAN_ANOMALY": 314.0769, "EPHEMERIS_TYPE": 0, "CLASSIFICATION_TYPE": "U", "NORAD_CAT_ID": 6909, "ELEMENT_SET_NO": 999, "REV_AT_EPOCH": 80504, "BSTAR": 0.00028015774, "MEAN_MOTION_DOT": 2.86e-06, "MEAN_MOTION_DDOT": 0}, "tle": {"line1": "1 06909U 73081A   25357.19261049  .00000286  00000+0  28016-3 0  9992", "line2": "2 06909  89.8561 254.8976 0156258  47.3440 314.0769 13.71439685805047"}}, "geometry": {"type": "Point", "coordinates": [-105.40368549978642, -63.97467416322834]}}, {"type": "Feature", "properties": {"norad_id": 10457, "name": "TRANSAT", "group": "nnss", "lat": 70.20472121097264, "lon": 79.19118110475044, "alt_km": 1068.814966645593, "timestamp": "2025-12-23T14:49:09.659391+00:00", "meta": {"OBJECT_NAME": "TRANSAT", "OBJECT_ID": "1977-106A", "EPOCH": "2025-12-23T05:50:16.228896", "MEAN_MOTION": 13.48945159, "ECCENTRICITY": 0.00263594, "INCLINATION": 89.6477, "RA_OF_ASC_NODE": 78.225, "ARG_OF_PERICENTER": 159.6405, "MEAN_ANOMALY": 254.6496, "EPHEMERIS_TYPE": 0, "CLASSIFICATION_TYPE": "U", "NORAD_CAT_ID": 10457, "ELEMENT_SET_NO": 999, "REV_AT_EPOCH": 36885, "BSTAR": 0.00013210866, "MEAN_MOTION_DOT": 9.3e-07, "MEAN_MOTION_DDOT": 0}, "tle": {"line1": "1 10457U 77106A   25357.24324339  .00000093  00000+0  13211-3 0  9992", "line2": "2 10457  89.6477  78.2250 0026359 159.6405 254.6496 13.48945159368854"}}, "geometry": {"type": "Point", "coordinates": [79.19118110475044, 70.20472121097264]}}, {"type": "Feature", "properties": {"norad_id": 12458, "name": "NOVA 1", "group": "nnss", "lat": 48.23704640617341, "lon": 91.39664228180884, "alt_km": 1157.483827791466, "timestamp": "2025-12-23T14:49:09.659403+00:00", "meta": {"OBJECT_NAME": "NOVA 1", "OBJECT_ID": "1981-044A", "EPOCH": "2025-12-23T05:48:16.496640", "MEAN_MOTION": 13.23279622, "ECCENTRICITY": 0.00157914, "INCLINATION": 89.8526, "RA_OF_ASC_NODE": 91.2368, "ARG_OF_PERICENTER": 78.1939, "MEAN_ANOMALY": 341.8782, "EPHEMERIS_TYPE": 0, "CLASSIFICATION_TYPE": "U", "NORAD_CAT_ID": 12458, "ELEMENT_SET_NO": 999, "REV_AT_EPOCH": 15325, "BSTAR": 0.00019952655, "MEAN_MOTION_DOT": 9.3e-07, "MEAN_MOTION_DDOT": 0}, "tle": {"line1": "1 12458U 81044A   25357.24185760  .00000093  00000+0  19953-3 0  9993", "line2": "2 12458  89.8526  91.2368 0015791  78.1939 341.8782 13.23279622153255"}}, "geometry": {"type": "Point", "coordinates": [91.39664228180884, 48.23704640617341]}}, {"type": "Feature", "properties": {"norad_id": 15362, "name": "NOVA 3", "group": "nnss", "lat": -88.23322977225858, "lon": 84.61675977544395, "alt_km": 1160.798398994296, "timestamp": "2025-12-23T14:49:09.659415+00:00", "meta": {"OBJECT_NAME": "NOVA 3", "OBJECT_ID": "1984-110A", "EPOCH": "2025-12-23T04:41:17.467584", "MEAN_MOTION": 13.2304577, "ECCENTRICITY": 0.00299135, "INCLINATION": 90.1218, "RA_OF_ASC_NODE": 80.6577, "ARG_OF_PERICENTER": 301.821, "MEAN_ANOMALY": 120.6756, "EPHEMERIS_TYPE": 0, "CLASSIFICATION_TYPE": "U", "NORAD_CAT_ID": 15362, "ELEMENT_SET_NO": 999, "REV_AT_EPOCH": 98837, "BSTAR": 0.00021033822, "MEAN_MOTION_DOT": 9.7e-07, "MEAN_MOTION_DDOT": 0}, "tle": {"line1": "1 15362U 84110A   25357.19534106  .00000097  00000+0  21034-3 0  9990", "line2": "2 15362  90.1218  80.6577 0029913 301.8210 120.6756 13.23045770988376"}}, "geometry": {"type": "Point", "coordinates": [84.61675977544395, -88.23322977225858]}}, {"type": "Feature", "properties": {"norad_id": 15935, "name": "OSCAR 30", "group": "nnss", "lat": 35.57153001968614, "lon": -79.8566658542311, "alt_km": 1121.2248290096559, "timestamp": "2025-12-23T14:49:09.659426+00:00", "meta": {"OBJECT_NAME": "OSCAR 30", "OBJECT_ID": "1985-066A", "EPOCH": "2025-12-23T05:25:30.096192", "MEAN_MOTION": 13.36079987, "ECCENTRICITY": 0.01689975, "INCLINATION": 90.1654, "RA_OF_ASC_NODE": 100.0186, "ARG_OF_PERICENTER": 54.6046, "MEAN_ANOMALY": 6.1693, "EPHEMERIS_TYPE": 0, "CLASSIFICATION_TYPE": "U", "NORAD_CAT_ID": 15935, "ELEMENT_SET_NO": 999, "REV_AT_EPOCH": 96593, "BSTAR": 0.00017369272, "MEAN_MOTION_DOT": 1.06e-06, "MEAN_MOTION_DDOT": 0}, "tle": {"line1": "1 15935U 85066A   25357.22604278  .00000106  00000+0  17369-3 0  9996", "line2": "2 15935  90.1654 100.0186 0168997  54.6046   6.1693 13.36079987965931"}}, "geometry": {"type": "Point", "coordinates": [-79.8566658542311, 35.57153001968614]}}, {"type": "Feature", "properties": {"norad_id": 15936, "name": "OSCAR 24", "group": "nnss", "lat": -33.15876568478546, "lon": -87.61926918595653, "alt_km": 1244.0629405792524, "timestamp": "2025-12-23T14:49:09.659439+00:00", "meta": {"OBJECT_NAME": "OSCAR 24", "OBJECT_ID": "1985-066B", "EPOCH": "2025-12-22T17:00:50.070240", "MEAN_MOTION": 13.35937122, "ECCENTRICITY": 0.01701816, "INCLINATION": 90.1791, "RA_OF_ASC_NODE": 92.4818, "ARG_OF_PERICENTER": 62.4983, "MEAN_ANOMALY": 102.6279, "EPHEMERIS_TYPE": 0, "CLASSIFICATION_TYPE": "U", "NORAD_CAT_ID": 15936, "ELEMENT_SET_NO": 999, "REV_AT_EPOCH": 96776, "BSTAR": 0.00014928667, "MEAN_MOTION_DOT": 9.3e-07, "MEAN_MOTION_DDOT": 0}, "tle": {"line1": "1 15936U 85066B   25356.70891285  .00000093  00000+0  14929-3 0  9999", "line2": "2 15936  90.1791  92.4818 0170181  62.4983 102.6279 13.35937122967763"}}, "geometry": {"type": "Point", "coordinates": [-87.61926918595653, -33.15876568478546]}}]}